{"type": "FeatureCollection", "features": [ {"type": "Feature", "properties": {"norad_id": 34635, "name": "COSMOS 2251 DEB", "group": "cosmos-2251-debris", "lat": -10.484270990532082, "lon": -121.79888961483965, "alt_km": 663.3008273541745, "timestamp": "2025-12-20T18:51:32.108027+00:00", "meta": {"OBJECT_NAME": "COSMOS 2251 DEB", "OBJECT_ID": "1993-036XG", "EPOCH": "2025-12-20T03:23:50.893728", "MEAN_MOTION": 14.6835205, "ECCENTRICITY": 0.0027955, "INCLINATION": 74.0457, "RA_OF_ASC_NODE": 56.411, "ARG_OF_PERICENTER": 122.6421, "MEAN_ANOMALY": 263.8294, "EPHEMERIS_TYPE": 0, "CLASSIFICATION_TYPE": "U", "NORAD_CAT_ID": 34635, "ELEMENT_SET_NO": 999, "REV_AT_EPOCH": 73328, "BSTAR": 0.00066455783, "MEAN_MOTION_DOT": 3.832e-05, "MEAN_MOTION_DDOT": 0}, "tle": {"line1": "1 34635U 93036XG  25354.14156127  .00003832  00000+0  66456-3 0  9993", "line2": "2 34635  74.0457  56.4110 0027955 122.6421 263.8294 14.68352050733284"}}, "geometry": {"type": "Point", "coordinates": [-121.79888961483965, -10.484270990532082]}}, {"type": "Feature", "properties": {"norad_id": 34637, "name": "COSMOS 2251 DEB", "group": "cosmos-2251-debris", "lat": 34.768023299773255, "lon": -105.63934035375445, "alt_km": 655.8510978444228, "timestamp": "2025-12-20T18:51:32.108037+00:00", "meta": {"OBJECT_NAME": "COSMOS 2251 DEB", "OBJECT_ID": "1993-036XJ", "EPOCH": "2025-12-20T06:58:32.739744", "MEAN_MOTION": 14.60157822, "ECCENTRICITY": 0.00491651, "INCLINATION": 74.0498, "RA_OF_ASC_NODE": 86.7558, "ARG_OF_PERICENTER": 155.316, "MEAN_ANOMALY": 266.6973, "EPHEMERIS_TYPE": 0, "CLASSIFICATION_TYPE": "U", "NORAD_CAT_ID": 34637, "ELEMENT_SET_NO": 999, "REV_AT_EPOCH": 88637, "BSTAR": 0.00058689997, "MEAN_MOTION_DOT": 2.845e-05, "MEAN_MOTION_DDOT": 0}, "tle": {"line1": "1 34637U 93036XJ  25354.29065671  .00002845  00000+0  58690-3 0  9998", "line2": "2 34637  74.0498  86.7558 0049165 155.3160 266.6973 14.60157822886379"}}, "geometry": {"type": "Point", "coordinates": [-105.63934035375445, 34.768023299773255]}}, {"type": "Feature", "properties": {"norad_id": 34641, "name": "COSMOS 2251 DEB", "group": "cosmos-2251-debris", "lat": -71.13347564347258, "lon": -55.63935421003105, "alt_km": 723.3092017431654, "timestamp": "2025-12-20T18:51:32.108048+00:00", "meta": {"OBJECT_NAME": "COSMOS 2251 DEB", "OBJECT_ID": "1993-036XN", "EPOCH": "2025-12-20T04:34:06.667680", "MEAN_MOTION": 14.52052401, "ECCENTRICITY": 0.00188943, "INCLINATION": 73.8396, "RA_OF_ASC_NODE": 67.4418, "ARG_OF_PERICENTER": 340.4704, "MEAN_ANOMALY": 48.556, "EPHEMERIS_TYPE": 0, "CLASSIFICATION_TYPE": "U", "NORAD_CAT_ID": 34641, "ELEMENT_SET_NO": 999, "REV_AT_EPOCH": 88364, "BSTAR": 0.00056393402, "MEAN_MOTION_DOT": 2.257e-05, "MEAN_MOTION_DDOT": 0}, "tle": {"line1": "1 34641U 93036XN  25354.19035495  .00002257  00000+0  56393-3 0  9998", "line2": "2 34641  73.8396  67.4418 0018894 340.4704  48.5560 14.52052401883649"}}, "geometry": {"type": "Point", "coordinates": [-55.63935421003105, -71.13347564347258]}}, {"type": "Feature", "properties": {"norad_id": 34642, "name": "COSMOS 2251 DEB", "group": "cosmos-2251-debris", "lat": -65.66329176213469, "lon": -174.77403173183015, "alt_km": 946.6541308504129, "timestamp": "2025-12-20T18:51:32.108058+00:00", "meta": {"OBJECT_NAME": "COSMOS 2251 DEB", "OBJECT_ID": "1993-036XP", "EPOCH": "2025-12-19T16:47:36.276288", "MEAN_MOTION": 13.98991151, "ECCENTRICITY": 0.02066861, "INCLINATION": 74.0042, "RA_OF_ASC_NODE": 327.7452, "ARG_OF_PERICENTER": 145.9553, "MEAN_ANOMALY": 35.4618, "EPHEMERIS_TYPE": 0, "CLASSIFICATION_TYPE": "U", "NORAD_CAT_ID": 34642, "ELEMENT_SET_NO": 999, "REV_AT_EPOCH": 85390, "BSTAR": 0.00059559157, "MEAN_MOTION_DOT": 1.011e-05, "MEAN_MOTION_DDOT": 0}, "tle": {"line1": "1 34642U 93036XP  25353.69972542  .00001011  00000+0  59559-3 0  9990", "line2": "2 34642  74.0042 327.7452 0206686 145.9553  35.4618 13.98991151853907"}}, "geometry": {"type": "Point", "coordinates": [-174.77403173183015, -65.66329176213469]}}, {"type": "Feature", "properties": {"norad_id": 34671, "name": "COSMOS 2251 DEB", "group": "cosmos-2251-debris", "lat": 69.67543323602273, "lon": 169.4121892392951, "alt_km": 667.5158059229643, "timestamp": "2025-12-20T18:51:32.108068+00:00", "meta": {"OBJECT_NAME": "COSMOS 2251 DEB", "OBJECT_ID": "1993-036XR", "EPOCH": "2025-12-20T10:36:59.077152", "MEAN_MOTION": 14.67055876, "ECCENTRICITY": 0.00109075, "INCLINATION": 74.027, "RA_OF_ASC_NODE": 119.4247, "ARG_OF_PERICENTER": 200.8198, "MEAN_ANOMALY": 223.5005, "EPHEMERIS_TYPE": 0, "CLASSIFICATION_TYPE": "U", "NORAD_CAT_ID": 34671, "ELEMENT_SET_NO": 999, "REV_AT_EPOCH": 88410, "BSTAR": 0.0010403942, "MEAN_MOTION_DOT": 5.817e-05, "MEAN_MOTION_DDOT": 0}, "tle": {"line1": "1 34671U 93036XR  25354.44235043  .00005817  00000+0  10404-2 0  9997", "line2": "2 34671  74.0270 119.4247 0010907 200.8198 223.5005 14.67055876884103"}}, "geometry": {"type": "Point", "coordinates": [169.4121892392951, 69.67543323602273]}}, {"type": "Feature", "properties": {"norad_id": 34672, "name": "COSMOS 2251 DEB", "group": "cosmos-2251-debris", "lat": 73.9250705770205, "lon": 27.336756516689103, "alt_km": 763.0981508574887, "timestamp": "2025-12-20T18:51:32.108078+00:00", "meta": {"OBJECT_NAME": "COSMOS 2251 DEB", "OBJECT_ID": "1993-036XS", "EPOCH": "2025-12-18T13:28:46.255872", "MEAN_MOTION": 14.36417673, "ECCENTRICITY": 0.00241418, "INCLINATION": 74.0338, "RA_OF_ASC_NODE": 294.8922, "ARG_OF_PERICENTER": 5.7391, "MEAN_ANOMALY": 109.133, "EPHEMERIS_TYPE": 0, "CLASSIFICATION_TYPE": "U", "NORAD_CAT_ID": 34672, "ELEMENT_SET_NO": 999, "REV_AT_EPOCH": 65261, "BSTAR": 0.00020838077, "MEAN_MOTION_DOT": 5.86e-06, "MEAN_MOTION_DDOT": 0}, "tle": {"line1": "1 34672U 93036XS  25352.56164648  .00000586  00000+0  20838-3 0  9992", "line2": "2 34672  74.0338 294.8922 0024141   5.7391 109.1330 14.36417673652611"}}, "geometry": {"type": "Point", "coordinates": [27.336756516689103, 73.9250705770205]}}, {"type": "Feature", "properties": {"norad_id": 34678, "name": "COSMOS 2251 DEB", "group": "cosmos-2251-debris", "lat": 74.00101889704489, "lon": 84.47187406846618, "alt_km": 773.4929098993116, "timestamp": "2025-12-20T18:51:32.108088+00:00", "meta": {"OBJECT_NAME": "COSMOS 2251 DEB", "OBJECT_ID": "1993-036XY", "EPOCH": "2025-12-20T10:44:44.051712", "MEAN_MOTION": 14.30066266, "ECCENTRICITY": 0.00246463, "INCLINATION": 74.0376, "RA_OF_ASC_NODE": 351.6788, "ARG_OF_PERICENTER": 38.3547, "MEAN_ANOMALY": 112.6582, "EPHEMERIS_TYPE": 0, "CLASSIFICATION_TYPE": "U", "NORAD_CAT_ID": 34678, "ELEMENT_SET_NO": 999, "REV_AT_EPOCH": 87489, "BSTAR": 2.5658311e-05, "MEAN_MOTION_DOT": 4.1e-07, "MEAN_MOTION_DDOT": 0}, "tle": {"line1": "1 34678U 93036XY  25354.44773208  .00000041  00000+0  25658-4 0  9997", "line2": "2 34678  74.0376 351.6788 0024646  38.3547 112.6582 14.30066266874892"}}, "geometry": {"type": "Point", "coordinates": [84.47187406846618, 74.00101889704489]}}, {"type": "Feature", "properties": {"norad_id": 34680, "name": "COSMOS 2251 DEB", "group": "cosmos-2251-debris", "lat": 1.6197775144423407, "lon": -65.96913675759659, "alt_km": 689.6799545105596, "timestamp": "2025-12-20T18:51:32.108098+00:00", "meta": {"OBJECT_NAME": "COSMOS 2251 DEB", "OBJECT_ID": "1993-036YA", "EPOCH": "2025-12-20T14:51:11.132640", "MEAN_MOTION": 14.60698323, "ECCENTRICITY": 0.00064747, "INCLINATION": 74.0434, "RA_OF_ASC_NODE": 114.813, "ARG_OF_PERICENTER": 215.4086, "MEAN_ANOMALY": 165.5002, "EPHEMERIS_TYPE": 0, "CLASSIFICATION_TYPE": "U", "NORAD_CAT_ID": 34680, "ELEMENT_SET_NO": 999, "REV_AT_EPOCH": 88443, "BSTAR": 0.00070479302, "MEAN_MOTION_DOT": 3.407e-05, "MEAN_MOTION_DDOT": 0}, "tle": {"line1": "1 34680U 93036YA  25354.61887885  .00003407  00000+0  70479-3 0  9995", "line2": "2 34680  74.0434 114.8130 0006474 215.4086 165.5002 14.60698323884438"}}, "geometry": {"type": "Point", "coordinates": [-65.96913675759659, 1.6197775144423407]}}, {"type": "Feature", "properties": {"norad_id": 34681, "name": "COSMOS 2251 DEB", "group": "cosmos-2251-debris", "lat": -17.336706737097316, "lon": -90.62693070135322, "alt_km": 605.6972887323327, "timestamp": "2025-12-20T18:51:32.108109+00:00", "meta": {"OBJECT_NAME": "COSMOS 2251 DEB", "OBJECT_ID": "1993-036YB", "EPOCH": "2025-12-20T05:03:03.083904", "MEAN_MOTION": 14.8337722, "ECCENTRICITY": 0.00256787, "INCLINATION": 74.0634, "RA_OF_ASC_NODE": 275.6275, "ARG_OF_PERICENTER": 331.3833, "MEAN_ANOMALY": 179.5165, "EPHEMERIS_TYPE": 0, "CLASSIFICATION_TYPE": "U", "NORAD_CAT_ID": 34681, "ELEMENT_SET_NO": 999, "REV_AT_EPOCH": 89381, "BSTAR": 0.00092860454, "MEAN_MOTION_DOT": 7.634e-05, "MEAN_MOTION_DDOT": 0}, "tle": {"line1": "1 34681U 93036YB  25354.21045236  .00007634  00000+0  92860-3 0  9992", "line2": "2 34681  74.0634 275.6275 0025678 331.3833 179.5165 14.83377220893814"}}, "geometry": {"type": "Point", "coordinates": [-90.62693070135322, -17.336706737097316]}}, {"type": "Feature", "properties": {"norad_id": 34682, "name": "COSMOS 2251 DEB", "group": "cosmos-2251-debris", "lat": 64.49971957043418, "lon": -149.20340990067072, "alt_km": 689.8600320122578, "timestamp": "2025-12-20T18:51:32.108119+00:00", "meta": {"OBJECT_NAME": "COSMOS 2251 DEB", "OBJECT_ID": "1993-036YC", "EPOCH": "2025-12-19T23:25:33.062304", "MEAN_MOTION": 14.58941947, "ECCENTRICITY": 0.0017987, "INCLINATION": 74.0399, "RA_OF_ASC_NODE": 69.2067, "ARG_OF_PERICENTER": 201.6181, "MEAN_ANOMALY": 337.6822, "EPHEMERIS_TYPE": 0, "CLASSIFICATION_TYPE": "U", "NORAD_CAT_ID": 34682, "ELEMENT_SET_NO": 999, "REV_AT_EPOCH": 88791, "BSTAR": 0.00048085, "MEAN_MOTION_DOT": 2.231e-05, "MEAN_MOTION_DDOT": 0}, "tle": {"line1": "1 34682U 93036YC  25353.97607711  .00002231  00000+0  48085-3 0  9995", "line2": "2 34682  74.0399  69.2067 0017987 201.6181 337.6822 14.58941947887914"}}, "geometry": {"type": "Point", "coordinates": [-149.20340990067072, 64.49971957043418]}}]}